METHANESAT              
1 59101U 24043D   25167.11256496  .00002315  00000+0  21482-3 0  9994
2 59101  97.8016 293.1850 0011834 145.8537 214.3447 14.95367146 69890
